[{"OBJECT_NAME":"STARLINK-30527","OBJECT_ID":"2023-153S","EPOCH":"2026-03-09T09:19:53.394816","MEAN_MOTION":15.27585536,"ECCENTRICITY":0.00028423,"INCLINATION":43.0021,"RA_OF_ASC_NODE":200.0773,"ARG_OF_PERICENTER":280.8447,"MEAN_ANOMALY":79.2084,"EPHEMERIS_TYPE":0,"CLASSIFICATION_TYPE":"U","NORAD_CAT_ID":58007,"ELEMENT_SET_NO":999,"REV_AT_EPOCH":13741,"BSTAR":6.8950262e-5,"MEAN_MOTION_DOT":1.635e-5,"MEAN_MOTION_DDOT":0},{"OBJECT_NAME":"HAWK-11C","OBJECT_ID":"2024-247E","EPOCH":"2026-03-09T12:17:35.407968","MEAN_MOTION":15.2884802,"ECCENTRICITY":0.00059001,"INCLINATION":45.0045,"RA_OF_ASC_NODE":114.8762,"ARG_OF_PERICENTER":329.704,"MEAN_ANOMALY":30.3502,"EPHEMERIS_TYPE":0,"CLASSIFICATION_TYPE":"U","NORAD_CAT_ID":62381,"ELEMENT_SET_NO":999,"REV_AT_EPOCH":6774,"BSTAR":0.00033290115,"MEAN_MOTION_DOT":9.223e-5,"MEAN_MOTION_DDOT":0}]
