STARLINK-30527          
1 58007U 23153S   26068.38881244  .00001635  00000+0  68950-4 0  9990
2 58007  43.0021 200.0773 0002842 280.8447  79.2084 15.27585536137413
HAWK-11C                
1 62381U 24247E   26068.51221537  .00009223  00000+0  33290-3 0  9992
2 62381  45.0045 114.8762 0005900 329.7040  30.3502 15.28848020 67743
